OBJECT_NAME,OBJECT_ID,EPOCH,MEAN_MOTION,ECCENTRICITY,INCLINATION,RA_OF_ASC_NODE,ARG_OF_PERICENTER,MEAN_ANOMALY,EPHEMERIS_TYPE,CLASSIFICATION_TYPE,NORAD_CAT_ID,ELEMENT_SET_NO,REV_AT_EPOCH,BSTAR,MEAN_MOTION_DOT,MEAN_MOTION_DDOT
ONEWEB-0236,2021-045AG,2026-06-10T00:38:05.289504,13.15547775,.00020849,87.8997,260.6331,103.3588,256.7775,0,U,48797,999,24331,.2821359E-3,.119E-5,0
ONEWEB-0248,2021-045AH,2026-06-10T00:56:19.451328,13.15546979,.00016108,87.9010,260.6134,112.9751,247.1549,0,U,48798,999,24347,.48726632E-3,.196E-5,0
ONEWEB-0225,2021-045AJ,2026-06-09T23:38:46.023360,13.15548908,.00013767,87.9007,260.6323,103.3303,256.7981,0,U,48799,999,24347,-.38066538E-3,-.13E-5,0
ONEWEB-0215,2021-045AK,2026-06-10T00:44:54.098880,13.15548084,.00012696,87.9011,260.6054,112.5912,247.5353,0,U,48800,999,24335,-.43510272E-3,-.151E-5,0
ONEWEB-0216,2021-045AL,2026-06-09T19:30:03.777408,13.15548493,.00019743,87.9009,260.6640,98.8290,261.3064,0,U,48801,999,24333,.1010532E-3,.51E-6,0
ONEWEB-0239,2021-045AM,2026-06-10T04:44:30.728832,13.15548677,.00014151,87.8999,260.5943,122.8005,237.3262,0,U,48802,999,24342,.24552921E-3,.105E-5,0
ONEWEB-0249,2021-060A,2026-06-10T03:17:31.718688,13.16595149,.00020163,87.9101,230.1780,102.2982,257.8374,0,U,48967,999,23868,-.14244221E-4,.7E-7,0
ONEWEB-0250,2021-060B,2026-06-10T03:18:51.616224,13.25832801,.00026124,87.9099,227.9571,120.2445,239.8950,0,U,48968,999,23928,.19186829E-3,.97E-6,0
ONEWEB-0252,2021-060D,2026-06-10T04:01:58.938528,13.16593223,.00019592,87.9100,230.1639,92.4500,267.6856,0,U,48970,999,23873,.19003166E-3,.85E-6,0
ONEWEB-0253,2021-060E,2026-06-10T03:46:01.295616,13.16593392,.00020395,87.9098,230.1717,102.8147,257.3212,0,U,48971,999,23866,.4574176E-5,.15E-6,0
ONEWEB-0254,2021-060F,2026-06-10T03:59:42.515520,13.16593876,.00018096,87.9102,230.1671,106.2333,253.8997,0,U,48972,999,23866,.18068458E-3,.82E-6,0
ONEWEB-0255,2021-060G,2026-06-10T04:54:25.649856,13.16594275,.00018812,87.9101,230.1663,101.5122,258.6220,0,U,48973,999,23874,-.75359783E-4,-.16E-6,0
ONEWEB-0256,2021-060H,2026-06-10T03:42:35.460576,13.16592951,.00021189,87.9094,230.1808,96.3347,263.8026,0,U,48974,999,23870,-.18201546E-4,.6E-7,0
ONEWEB-0257,2021-060J,2026-06-10T04:29:20.396832,13.16594388,.00019022,87.9100,230.1611,97.4992,262.6355,0,U,48975,999,23866,.25399679E-3,.11E-5,0
ONEWEB-0258,2021-060K,2026-06-10T04:31:37.400448,13.16594044,.00020313,87.9102,230.1726,100.7977,259.3382,0,U,48976,999,23867,.17787549E-3,.81E-6,0
ONEWEB-0259,2021-060L,2026-06-10T04:22:30.540288,13.16594470,.00019751,87.9100,230.1732,104.2599,255.8751,0,U,48977,999,23870,.2980885E-3,.127E-5,0
ONEWEB-0260,2021-060M,2026-06-10T04:09:57.394080,13.16593605,.00020778,87.9094,230.1770,87.9062,272.2307,0,U,48978,999,23868,.23090593E-3,.101E-5,0
ONEWEB-0261,2021-060N,2026-06-10T03:26:37.562784,13.16595561,.0001698,87.9096,230.1827,97.4907,262.6417,0,U,48979,999,23873,-.67440024E-4,-.13E-6,0
ONEWEB-0262,2021-060P,2026-06-10T04:47:35.120256,13.16593929,.0001967,87.9100,230.1572,107.2074,252.9272,0,U,48980,999,23870,-.5114626E-4,-.7E-7,0
ONEWEB-0263,2021-060Q,2026-06-09T22:15:26.303328,13.16594460,.00016947,87.9098,230.2230,101.6772,258.4549,0,U,48981,999,23863,-.9017E-8,.13E-6,0
ONEWEB-0264,2021-060R,2026-06-10T04:37:19.925472,13.16594446,.00018683,87.9101,230.1734,94.2098,265.9246,0,U,48982,999,23867,.2675613E-3,.115E-5,0
ONEWEB-0266,2021-060T,2026-06-10T03:18:39.941856,13.16593798,.00021257,87.9101,230.1748,99.9434,260.1937,0,U,48984,999,23865,-.10316409E-3,-.27E-6,0
ONEWEB-0267,2021-060U,2026-06-10T03:34:37.714368,13.16594095,.00018344,87.9100,230.1690,97.4512,262.6828,0,U,48985,999,23866,-.38398437E-4,-.2E-7,0
ONEWEB-0268,2021-060V,2026-06-10T04:38:27.211200,13.16595657,.00020577,87.9103,230.1699,95.2147,264.9219,0,U,48986,999,23893,.79051363E-4,.43E-6,0
ONEWEB-0269,2021-060W,2026-06-10T04:11:06.347328,13.16594216,.00022034,87.9090,230.1769,95.5912,264.5470,0,U,48987,999,23870,.21161323E-3,.94E-6,0
ONEWEB-0270,2021-060X,2026-06-10T04:36:11.234880,13.16594271,.00017423,87.9103,230.1719,106.4382,253.6941,0,U,48988,999,23874,.18173527E-3,.82E-6,0
ONEWEB-0271,2021-060Y,2026-06-10T04:17:56.810400,13.16594386,.0001775,87.9100,230.1646,100.0344,260.0988,0,U,48989,999,23874,.29877997E-3,.127E-5,0
ONEWEB-0272,2021-060Z,2026-06-10T04:49:50.437344,13.16593424,.00018948,87.9102,230.1720,90.5512,269.5836,0,U,48990,999,23869,-.60126766E-3,-.217E-5,0
ONEWEB-0273,2021-060AA,2026-06-10T03:32:20.893056,13.16594376,.00019136,87.9102,230.1816,101.1255,259.0092,0,U,48991,999,23866,-.65489167E-4,-.12E-6,0
ONEWEB-0274,2021-060AB,2026-06-10T04:08:48.820128,13.16593583,.00020083,87.9090,230.1799,89.6722,270.4639,0,U,48992,999,23870,.26679154E-3,.115E-5,0
