ONEWEB-0236             
1 48797U 21045AG  26161.02645011  .00000119  00000+0  28214-3 0  9992
2 48797  87.8997 260.6331 0002084 103.3588 256.7775 13.15547775243315
ONEWEB-0248             
1 48798U 21045AH  26161.03911402  .00000196  00000+0  48727-3 0  9990
2 48798  87.9010 260.6134 0001610 112.9751 247.1549 13.15546979243471
ONEWEB-0225             
1 48799U 21045AJ  26160.98525490 -.00000130  00000+0 -38067-3 0  9998
2 48799  87.9007 260.6323 0001376 103.3303 256.7981 13.15548908243474
ONEWEB-0215             
1 48800U 21045AK  26161.03118170 -.00000151  00000+0 -43510-3 0  9993
2 48800  87.9011 260.6054 0001269 112.5912 247.5353 13.15548084243355
ONEWEB-0216             
1 48801U 21045AL  26160.81254372  .00000051  00000+0  10105-3 0  9995
2 48801  87.9009 260.6640 0001974  98.8290 261.3064 13.15548493243337
ONEWEB-0239             
1 48802U 21045AM  26161.19757788  .00000105  00000+0  24553-3 0  9999
2 48802  87.8999 260.5943 0001415 122.8005 237.3262 13.15548677243429
ONEWEB-0249             
1 48967U 21060A   26161.13717267  .00000007  00000+0 -14244-4 0  9999
2 48967  87.9101 230.1780 0002016 102.2982 257.8374 13.16595149238683
ONEWEB-0250             
1 48968U 21060B   26161.13809741  .00000097  00000+0  19187-3 0  9997
2 48968  87.9099 227.9571 0002612 120.2445 239.8950 13.25832801239284
ONEWEB-0252             
1 48970U 21060D   26161.16804327  .00000085  00000+0  19003-3 0  9992
2 48970  87.9100 230.1639 0001959  92.4500 267.6856 13.16593223238731
ONEWEB-0253             
1 48971U 21060E   26161.15695944  .00000015  00000+0  45742-5 0  9999
2 48971  87.9098 230.1717 0002039 102.8147 257.3212 13.16593392238669
ONEWEB-0254             
1 48972U 21060F   26161.16646430  .00000082  00000+0  18068-3 0  9990
2 48972  87.9102 230.1671 0001809 106.2333 253.8997 13.16593876238662
ONEWEB-0255             
1 48973U 21060G   26161.20446354 -.00000016  00000+0 -75360-4 0  9997
2 48973  87.9101 230.1663 0001881 101.5122 258.6220 13.16594275238742
ONEWEB-0256             
1 48974U 21060H   26161.15457709  .00000006  00000+0 -18202-4 0  9998
2 48974  87.9094 230.1808 0002118  96.3347 263.8026 13.16592951238706
ONEWEB-0257             
1 48975U 21060J   26161.18704163  .00000110  00000+0  25400-3 0  9993
2 48975  87.9100 230.1611 0001902  97.4992 262.6355 13.16594388238668
ONEWEB-0258             
1 48976U 21060K   26161.18862732  .00000081  00000+0  17788-3 0  9998
2 48976  87.9102 230.1726 0002031 100.7977 259.3382 13.16594044238676
ONEWEB-0259             
1 48977U 21060L   26161.18229792  .00000127  00000+0  29809-3 0  9990
2 48977  87.9100 230.1732 0001975 104.2599 255.8751 13.16594470238705
ONEWEB-0260             
1 48978U 21060M   26161.17358095  .00000101  00000+0  23091-3 0  9998
2 48978  87.9094 230.1770 0002077  87.9062 272.2307 13.16593605238682
ONEWEB-0261             
1 48979U 21060N   26161.14349031 -.00000013  00000+0 -67440-4 0  9997
2 48979  87.9096 230.1827 0001698  97.4907 262.6417 13.16595561238734
ONEWEB-0262             
1 48980U 21060P   26161.19971204 -.00000007  00000+0 -51146-4 0  9996
2 48980  87.9100 230.1572 0001967 107.2074 252.9272 13.16593929238707
ONEWEB-0263             
1 48981U 21060Q   26160.92738777  .00000013  00000+0 -90170-8 0  9993
2 48981  87.9098 230.2230 0001694 101.6772 258.4549 13.16594460238637
ONEWEB-0264             
1 48982U 21060R   26161.19259173  .00000115  00000+0  26756-3 0  9998
2 48982  87.9101 230.1734 0001868  94.2098 265.9246 13.16594446238677
ONEWEB-0266             
1 48984U 21060T   26161.13796229 -.00000027  00000+0 -10316-3 0  9991
2 48984  87.9101 230.1748 0002125  99.9434 260.1937 13.16593798238658
ONEWEB-0267             
1 48985U 21060U   26161.14904762 -.00000002  00000+0 -38398-4 0  9990
2 48985  87.9100 230.1690 0001834  97.4512 262.6828 13.16594095238668
ONEWEB-0268             
1 48986U 21060V   26161.19337050  .00000043  00000+0  79051-4 0  9990
2 48986  87.9103 230.1699 0002057  95.2147 264.9219 13.16595657238933
ONEWEB-0269             
1 48987U 21060W   26161.17437902  .00000094  00000+0  21161-3 0  9990
2 48987  87.9090 230.1769 0002203  95.5912 264.5470 13.16594216238703
ONEWEB-0270             
1 48988U 21060X   26161.19179670  .00000082  00000+0  18174-3 0  9995
2 48988  87.9103 230.1719 0001742 106.4382 253.6941 13.16594271238741
ONEWEB-0271             
1 48989U 21060Y   26161.17912975  .00000127  00000+0  29878-3 0  9990
2 48989  87.9100 230.1646 0001775 100.0344 260.0988 13.16594386238742
ONEWEB-0272             
1 48990U 21060Z   26161.20127821 -.00000217  00000+0 -60127-3 0  9998
2 48990  87.9102 230.1720 0001894  90.5512 269.5836 13.16593424238693
ONEWEB-0273             
1 48991U 21060AA  26161.14746404 -.00000012  00000+0 -65489-4 0  9996
2 48991  87.9102 230.1816 0001913 101.1255 259.0092 13.16594376238667
ONEWEB-0274             
1 48992U 21060AB  26161.17278727  .00000115  00000+0  26679-3 0  9997
2 48992  87.9090 230.1799 0002008  89.6722 270.4639 13.16593583238707
